CZ-2D R/B               
1 65853U 25222C   25299.27542307  .00002694  00000+0  21102-3 0  9996
2 65853  34.9022 223.7842 0056490 209.7062 150.0430 14.99316742  4088
STARLINK-35208          
1 65854U 25223A   25299.83334491 -.00059143  00000+0 -14779-2 0  9997
2 65854  53.1593 198.7084 0000885  66.4284 248.5631 15.39665608  4950
STARLINK-35200          
1 65855U 25223B   25299.76292744  .00081922  00000+0  14644-2 0  9993
2 65855  53.1590 198.8906 0000848  92.2023 267.9083 15.49332905  3664
STARLINK-35459          
1 65856U 25223C   25299.83334491 -.02073067  00000+0 -50208-1 0  9998
2 65856  53.1588 198.5706 0001053  99.3307 284.9228 15.44132760  4954
STARLINK-35489          
1 65857U 25223D   25299.76224112  .00075628  00000+0  13536-2 0  9994
2 65857  53.1591 198.8855 0000931  89.7594 270.3522 15.49333312  3666
STARLINK-35199          
1 65858U 25223E   25299.76189727  .00077364  00000+0  13840-2 0  9994
2 65858  53.1590 198.8832 0001161  95.4518 264.6624 15.49336087  3668
STARLINK-35408          
1 65859U 25223F   25299.83334491  .00014763  00000+0  37852-3 0  9997
2 65859  53.1592 198.6562 0001525  97.3541 243.4440 15.39606043  4955
STARLINK-35303          
1 65860U 25223G   25299.83334491 -.02079455  00000+0 -46869-1 0  9998
2 65860  53.1590 198.5379 0000922 103.1320 297.6292 15.46228371  4959
STARLINK-35258          
1 65861U 25223H   25299.76155208  .00093293  00000+0  16636-2 0  9990
2 65861  53.1586 198.8799 0000185 132.9803 227.1222 15.49340649  3665
STARLINK-35386          
1 65862U 25223J   25299.76018164  .00069327  00000+0  12428-2 0  9996
2 65862  53.1590 198.8709 0001144  89.5683 270.5457 15.49324950  3660
STARLINK-35469          
1 65863U 25223K   25299.83334491  .00021298  00000+0  54146-3 0  9998
2 65863  53.1593 198.6041 0001316 111.7959 254.7867 15.39590300  4951
STARLINK-35471          
1 65864U 25223L   25299.75983573  .00051194  00000+0  92172-3 0  9990
2 65864  53.1583 198.8679 0001146  96.9177 263.1962 15.49332649  3665
