CCSDS_OMM_VERS = 2.0
CREATION_DATE  = 
ORIGINATOR     = 

OBJECT_NAME    = CZ-2D R/B
OBJECT_ID      = 2025-222C
CENTER_NAME    = EARTH
REF_FRAME      = TEME
TIME_SYSTEM    = UTC
MEAN_ELEMENT_THEORY = SGP/SGP4

EPOCH          = 2025-10-26T06:36:36.553248
MEAN_MOTION    = 14.99316742
ECCENTRICITY   = .00564901
INCLINATION    = 34.9022
RA_OF_ASC_NODE = 223.7842
ARG_OF_PERICENTER = 209.7062
MEAN_ANOMALY   = 150.0430

EPHEMERIS_TYPE = 0
CLASSIFICATION_TYPE = U
NORAD_CAT_ID   = 65853
ELEMENT_SET_NO = 999
REV_AT_EPOCH   = 408
BSTAR          = .21101734E-3
MEAN_MOTION_DOT = .2694E-4
MEAN_MOTION_DDOT = 0

CCSDS_OMM_VERS = 2.0
CREATION_DATE  = 
ORIGINATOR     = 

OBJECT_NAME    = STARLINK-35208
OBJECT_ID      = 2025-223A
CENTER_NAME    = EARTH
REF_FRAME      = TEME
TIME_SYSTEM    = UTC
MEAN_ELEMENT_THEORY = SGP/SGP4

EPOCH          = 2025-10-26T20:00:01.000224
MEAN_MOTION    = 15.39665608
ECCENTRICITY   = .0000885
INCLINATION    = 53.1593
RA_OF_ASC_NODE = 198.7084
ARG_OF_PERICENTER = 66.4284
MEAN_ANOMALY   = 248.5631

EPHEMERIS_TYPE = 0
CLASSIFICATION_TYPE = U
NORAD_CAT_ID   = 65854
ELEMENT_SET_NO = 999
REV_AT_EPOCH   = 495
BSTAR          = -.14779E-2
MEAN_MOTION_DOT = -.59143E-3
MEAN_MOTION_DDOT = 0

CCSDS_OMM_VERS = 2.0
CREATION_DATE  = 
ORIGINATOR     = 

OBJECT_NAME    = STARLINK-35200
OBJECT_ID      = 2025-223B
CENTER_NAME    = EARTH
REF_FRAME      = TEME
TIME_SYSTEM    = UTC
MEAN_ELEMENT_THEORY = SGP/SGP4

EPOCH          = 2025-10-26T18:18:36.930816
MEAN_MOTION    = 15.49332905
ECCENTRICITY   = .0000848
INCLINATION    = 53.1590
RA_OF_ASC_NODE = 198.8906
ARG_OF_PERICENTER = 92.2023
MEAN_ANOMALY   = 267.9083

EPHEMERIS_TYPE = 0
CLASSIFICATION_TYPE = U
NORAD_CAT_ID   = 65855
ELEMENT_SET_NO = 999
REV_AT_EPOCH   = 366
BSTAR          = .14644E-2
MEAN_MOTION_DOT = .81922E-3
MEAN_MOTION_DDOT = 0

CCSDS_OMM_VERS = 2.0
CREATION_DATE  = 
ORIGINATOR     = 

OBJECT_NAME    = STARLINK-35459
OBJECT_ID      = 2025-223C
CENTER_NAME    = EARTH
REF_FRAME      = TEME
TIME_SYSTEM    = UTC
MEAN_ELEMENT_THEORY = SGP/SGP4

EPOCH          = 2025-10-26T20:00:01.000224
MEAN_MOTION    = 15.44132760
ECCENTRICITY   = .0001053
INCLINATION    = 53.1588
RA_OF_ASC_NODE = 198.5706
ARG_OF_PERICENTER = 99.3307
MEAN_ANOMALY   = 284.9228

EPHEMERIS_TYPE = 0
CLASSIFICATION_TYPE = U
NORAD_CAT_ID   = 65856
ELEMENT_SET_NO = 999
REV_AT_EPOCH   = 495
BSTAR          = -.50208E-1
MEAN_MOTION_DOT = -.2073067E-1
MEAN_MOTION_DDOT = 0

CCSDS_OMM_VERS = 2.0
CREATION_DATE  = 
ORIGINATOR     = 

OBJECT_NAME    = STARLINK-35489
OBJECT_ID      = 2025-223D
CENTER_NAME    = EARTH
REF_FRAME      = TEME
TIME_SYSTEM    = UTC
MEAN_ELEMENT_THEORY = SGP/SGP4

EPOCH          = 2025-10-26T18:17:37.632768
MEAN_MOTION    = 15.49333312
ECCENTRICITY   = .0000931
INCLINATION    = 53.1591
RA_OF_ASC_NODE = 198.8855
ARG_OF_PERICENTER = 89.7594
MEAN_ANOMALY   = 270.3522

EPHEMERIS_TYPE = 0
CLASSIFICATION_TYPE = U
NORAD_CAT_ID   = 65857
ELEMENT_SET_NO = 999
REV_AT_EPOCH   = 366
BSTAR          = .13536E-2
MEAN_MOTION_DOT = .75628E-3
MEAN_MOTION_DDOT = 0

CCSDS_OMM_VERS = 2.0
CREATION_DATE  = 
ORIGINATOR     = 

OBJECT_NAME    = STARLINK-35199
OBJECT_ID      = 2025-223E
CENTER_NAME    = EARTH
REF_FRAME      = TEME
TIME_SYSTEM    = UTC
MEAN_ELEMENT_THEORY = SGP/SGP4

EPOCH          = 2025-10-26T18:17:07.924128
MEAN_MOTION    = 15.49336087
ECCENTRICITY   = .0001161
INCLINATION    = 53.1590
RA_OF_ASC_NODE = 198.8832
ARG_OF_PERICENTER = 95.4518
MEAN_ANOMALY   = 264.6624

EPHEMERIS_TYPE = 0
CLASSIFICATION_TYPE = U
NORAD_CAT_ID   = 65858
ELEMENT_SET_NO = 999
REV_AT_EPOCH   = 366
BSTAR          = .1384E-2
MEAN_MOTION_DOT = .77364E-3
MEAN_MOTION_DDOT = 0

CCSDS_OMM_VERS = 2.0
CREATION_DATE  = 
ORIGINATOR     = 

OBJECT_NAME    = STARLINK-35408
OBJECT_ID      = 2025-223F
CENTER_NAME    = EARTH
REF_FRAME      = TEME
TIME_SYSTEM    = UTC
MEAN_ELEMENT_THEORY = SGP/SGP4

EPOCH          = 2025-10-26T20:00:01.000224
MEAN_MOTION    = 15.39606043
ECCENTRICITY   = .0001525
INCLINATION    = 53.1592
RA_OF_ASC_NODE = 198.6562
ARG_OF_PERICENTER = 97.3541
MEAN_ANOMALY   = 243.4440

EPHEMERIS_TYPE = 0
CLASSIFICATION_TYPE = U
NORAD_CAT_ID   = 65859
ELEMENT_SET_NO = 999
REV_AT_EPOCH   = 495
BSTAR          = .37852E-3
MEAN_MOTION_DOT = .14763E-3
MEAN_MOTION_DDOT = 0

CCSDS_OMM_VERS = 2.0
CREATION_DATE  = 
ORIGINATOR     = 

OBJECT_NAME    = STARLINK-35303
OBJECT_ID      = 2025-223G
CENTER_NAME    = EARTH
REF_FRAME      = TEME
TIME_SYSTEM    = UTC
MEAN_ELEMENT_THEORY = SGP/SGP4

EPOCH          = 2025-10-26T20:00:01.000224
MEAN_MOTION    = 15.46228371
ECCENTRICITY   = .0000922
INCLINATION    = 53.1590
RA_OF_ASC_NODE = 198.5379
ARG_OF_PERICENTER = 103.1320
MEAN_ANOMALY   = 297.6292

EPHEMERIS_TYPE = 0
CLASSIFICATION_TYPE = U
NORAD_CAT_ID   = 65860
ELEMENT_SET_NO = 999
REV_AT_EPOCH   = 495
BSTAR          = -.46869E-1
MEAN_MOTION_DOT = -.2079455E-1
MEAN_MOTION_DDOT = 0

CCSDS_OMM_VERS = 2.0
CREATION_DATE  = 
ORIGINATOR     = 

OBJECT_NAME    = STARLINK-35258
OBJECT_ID      = 2025-223H
CENTER_NAME    = EARTH
REF_FRAME      = TEME
TIME_SYSTEM    = UTC
MEAN_ELEMENT_THEORY = SGP/SGP4

EPOCH          = 2025-10-26T18:16:38.099712
MEAN_MOTION    = 15.49340649
ECCENTRICITY   = .0000185
INCLINATION    = 53.1586
RA_OF_ASC_NODE = 198.8799
ARG_OF_PERICENTER = 132.9803
MEAN_ANOMALY   = 227.1222

EPHEMERIS_TYPE = 0
CLASSIFICATION_TYPE = U
NORAD_CAT_ID   = 65861
ELEMENT_SET_NO = 999
REV_AT_EPOCH   = 366
BSTAR          = .16636E-2
MEAN_MOTION_DOT = .93293E-3
MEAN_MOTION_DDOT = 0

CCSDS_OMM_VERS = 2.0
CREATION_DATE  = 
ORIGINATOR     = 

OBJECT_NAME    = STARLINK-35386
OBJECT_ID      = 2025-223J
CENTER_NAME    = EARTH
REF_FRAME      = TEME
TIME_SYSTEM    = UTC
MEAN_ELEMENT_THEORY = SGP/SGP4

EPOCH          = 2025-10-26T18:14:39.693696
MEAN_MOTION    = 15.49324950
ECCENTRICITY   = .0001144
INCLINATION    = 53.1590
RA_OF_ASC_NODE = 198.8709
ARG_OF_PERICENTER = 89.5683
MEAN_ANOMALY   = 270.5457

EPHEMERIS_TYPE = 0
CLASSIFICATION_TYPE = U
NORAD_CAT_ID   = 65862
ELEMENT_SET_NO = 999
REV_AT_EPOCH   = 366
BSTAR          = .12428E-2
MEAN_MOTION_DOT = .69327E-3
MEAN_MOTION_DDOT = 0

CCSDS_OMM_VERS = 2.0
CREATION_DATE  = 
ORIGINATOR     = 

OBJECT_NAME    = STARLINK-35469
OBJECT_ID      = 2025-223K
CENTER_NAME    = EARTH
REF_FRAME      = TEME
TIME_SYSTEM    = UTC
MEAN_ELEMENT_THEORY = SGP/SGP4

EPOCH          = 2025-10-26T20:00:01.000224
MEAN_MOTION    = 15.39590300
ECCENTRICITY   = .0001316
INCLINATION    = 53.1593
RA_OF_ASC_NODE = 198.6041
ARG_OF_PERICENTER = 111.7959
MEAN_ANOMALY   = 254.7867

EPHEMERIS_TYPE = 0
CLASSIFICATION_TYPE = U
NORAD_CAT_ID   = 65863
ELEMENT_SET_NO = 999
REV_AT_EPOCH   = 495
BSTAR          = .54146E-3
MEAN_MOTION_DOT = .21298E-3
MEAN_MOTION_DDOT = 0

CCSDS_OMM_VERS = 2.0
CREATION_DATE  = 
ORIGINATOR     = 

OBJECT_NAME    = STARLINK-35471
OBJECT_ID      = 2025-223L
CENTER_NAME    = EARTH
REF_FRAME      = TEME
TIME_SYSTEM    = UTC
MEAN_ELEMENT_THEORY = SGP/SGP4

EPOCH          = 2025-10-26T18:14:09.807072
MEAN_MOTION    = 15.49332649
ECCENTRICITY   = .0001146
INCLINATION    = 53.1583
RA_OF_ASC_NODE = 198.8679
ARG_OF_PERICENTER = 96.9177
MEAN_ANOMALY   = 263.1962

EPHEMERIS_TYPE = 0
CLASSIFICATION_TYPE = U
NORAD_CAT_ID   = 65864
ELEMENT_SET_NO = 999
REV_AT_EPOCH   = 366
BSTAR          = .92172E-3
MEAN_MOTION_DOT = .51194E-3
MEAN_MOTION_DDOT = 0

